STARLINK-2314           
1 47788U 21018B   26199.74374696  .00033793  00000+0  76338-3 0  9993
2 47788  53.1561 325.0822 0000463 118.8708 241.2345 15.42903784297210
STARLINK-2315           
1 47789U 21018C   26199.73314329  .00000015  00000+0  12251-4 0  9996
2 47789  53.1609 349.5724 0000703  90.4045 269.7036 15.31707163296843
STARLINK-2319           
1 47790U 21018D   26199.75538419 -.00000363  00000+0  56369-7 0  9996
2 47790  53.1612 326.8471 0000740  93.1234 266.9852 15.31712807297181
STARLINK-2322           
1 47791U 21018E   26199.79022992  .00002719  00000+0  99349-4 0  9993
2 47791  53.1611 352.9195 0001490 112.8486 247.2673 15.31699973296826
STARLINK-2334           
1 47792U 21018F   26199.85430948 -.00003672  00000+0 -10662-3 0  9996
2 47792  53.1616 348.8414 0001823  83.5656 276.5553 15.31695985296868
STARLINK-2338           
1 47793U 21018G   26199.73778802  .00000062  00000+0  13768-4 0  9997
2 47793  53.1616 349.3808 0001304  93.1901 266.9250 15.31701044296834
STARLINK-2373           
1 47796U 21018K   26199.81502003  .00029472  00000+0  80732-3 0  9997
2 47796  53.1582 347.6505 0000449 267.6806  92.4146 15.37100035296874
STARLINK-2377           
1 47797U 21018L   26199.82120458  .00001580  00000+0  62657-4 0  9996
2 47797  53.1623   5.2406 0001003  80.8187 279.2928 15.31711486296631
STARLINK-2379           
1 47798U 21018M   26199.82166910  .00002884  00000+0  10460-3 0  9992
2 47798  53.1613 348.9943 0001140  75.2231 284.8897 15.31715230296856
STARLINK-2380           
1 47799U 21018N   26199.77346091 -.00000251  00000+0  36616-5 0  9997
2 47799  53.1601 342.2174 0001238  77.1545 282.9594 15.31703548296946
STARLINK-2381           
1 47800U 21018P   26199.70049980  .00003127  00000+0  11247-3 0  9995
2 47800  53.1606 349.4714 0001241  83.4729 276.6414 15.31707320296832
STARLINK-2383           
1 47802U 21018R   26199.80728807  .00001204  00000+0  50532-4 0  9995
2 47802  53.1612   5.7752 0001179  88.5320 271.5816 15.31711090296635
STARLINK-2385           
1 47804U 21018T   26199.75454810  .00001623  00000+0  64045-4 0  9990
2 47804  53.1602 340.3390 0001114  89.0271 271.0858 15.31711683296978
STARLINK-2386           
1 47805U 21018U   26199.83635850  .00021685  00000+0  86615-3 0  9991
2 47805  53.0895 353.6339 0001792 213.9297 146.1586 15.25096250296788
STARLINK-2387           
1 47806U 21018V   26199.82752583  .00003742  00000+0  13225-3 0  9995
2 47806  53.1612 352.8018 0000901  74.9845 285.1256 15.31710531296877
STARLINK-2388           
1 47807U 21018W   26199.76005285  .00001567  00000+0  62226-4 0  9998
2 47807  53.1608 326.8354 0001144  80.3261 279.7869 15.31707927297167
STARLINK-2389           
1 47808U 21018X   26199.68732470  .00000769  00000+0  36538-4 0  9993
2 47808  53.1623 353.1207 0001170  77.0852 283.0280 15.31707730296855
STARLINK-2391           
1 47810U 21018Z   26199.84921919  .00000189  00000+0  17860-4 0  9995
2 47810  53.1616   5.4328 0001207  73.8403 286.2731 15.31704706296696
STARLINK-2395           
1 47814U 21018AD  26199.71098266  .00000702  00000+0  34374-4 0  9995
2 47814  53.1624 353.1829 0001127  84.3155 275.7975 15.31710000296866
STARLINK-2396           
1 47815U 21018AE  26199.83680159  .00005845  00000+0  19986-3 0  9991
2 47815  53.1600 352.4699 0001181  88.7616 271.3521 15.31715845296814
STARLINK-2399           
1 47816U 21018AF  26199.84522755  .00000484  00000+0  27368-4 0  9998
2 47816  53.1610   7.9275 0001212  89.0593 271.0547 15.31703638296587
STARLINK-2400           
1 47817U 21018AG  26199.86482800  .00001378  00000+0  56147-4 0  9997
2 47817  53.1624 352.7760 0001035  88.7431 271.3689 15.31706108296814
STARLINK-2401           
1 47818U 21018AH  26199.83335647  .00092157  00000+0  44636-3 0  9995
2 47818  53.0443 338.0078 0004451 328.1226 239.2479 15.81767631  5989
STARLINK-2402           
1 47819U 21018AJ  26199.86015616  .00001995  00000+0  76012-4 0  9994
2 47819  53.1598 352.7119 0001200  99.4046 260.7091 15.31709845296886
STARLINK-2406           
1 47821U 21018AL  26199.73895668 -.00002107  00000+0 -56144-4 0  9998
2 47821  53.1605 353.1489 0000954  67.6893 292.4210 15.31714026296809
STARLINK-2407           
1 47822U 21018AM  26199.85848157  .00000938  00000+0  41969-4 0  9990
2 47822  53.1617   4.9700 0001311  74.5079 285.6067 15.31709573296659
STARLINK-2408           
1 47823U 21018AN  26199.71004980  .00000019  00000+0  12369-4 0  9996
2 47823  53.1611   8.4271 0001259  96.0094 264.1051 15.31704895296571
STARLINK-2409           
1 47824U 21018AP  26199.82631493  .00001886  00000+0  72506-4 0  9996
2 47824  53.1605   8.5508 0001360  99.2747 260.8408 15.31713478296578
STARLINK-2410           
1 47825U 21018AQ  26199.83215652  .00003865  00000+0  13616-3 0  9998
2 47825  53.1618 352.6382 0001119  80.7909 279.3219 15.31721082296826
STARLINK-2411           
1 47826U 21018AR  26199.81852979  .00000133  00000+0  16043-4 0  9999
2 47826  53.1613 355.2518 0001146  76.4775 283.6354 15.31701072296785
