OBJECT_NAME,OBJECT_ID,EPOCH,MEAN_MOTION,ECCENTRICITY,INCLINATION,RA_OF_ASC_NODE,ARG_OF_PERICENTER,MEAN_ANOMALY,EPHEMERIS_TYPE,CLASSIFICATION_TYPE,NORAD_CAT_ID,ELEMENT_SET_NO,REV_AT_EPOCH,BSTAR,MEAN_MOTION_DOT,MEAN_MOTION_DDOT
STARLINK-2314,2021-018B,2026-07-18T17:50:59.737344,15.42903784,.0000463,53.1561,325.0822,118.8708,241.2345,0,U,47788,999,29721,.76338E-3,.33793E-3,0
STARLINK-2315,2021-018C,2026-07-18T17:35:43.580256,15.31707163,.0000703,53.1609,349.5724,90.4045,269.7036,0,U,47789,999,29684,.12251E-4,.15E-6,0
STARLINK-2319,2021-018D,2026-07-18T18:07:45.194016,15.31712807,.000074,53.1612,326.8471,93.1234,266.9852,0,U,47790,999,29718,.56369E-7,-.363E-5,0
STARLINK-2322,2021-018E,2026-07-18T18:57:55.865088,15.31699973,.000149,53.1611,352.9195,112.8486,247.2673,0,U,47791,999,29682,.99349E-4,.2719E-4,0
STARLINK-2334,2021-018F,2026-07-18T20:30:12.339072,15.31695985,.0001823,53.1616,348.8414,83.5656,276.5553,0,U,47792,999,29686,-.10662E-3,-.3672E-4,0
STARLINK-2338,2021-018G,2026-07-18T17:42:24.884928,15.31701044,.0001304,53.1616,349.3808,93.1901,266.9250,0,U,47793,999,29683,.13768E-4,.62E-6,0
STARLINK-2373,2021-018K,2026-07-18T19:33:37.730592,15.37100035,.0000449,53.1582,347.6505,267.6806,92.4146,0,U,47796,999,29687,.80732E-3,.29472E-3,0
STARLINK-2377,2021-018L,2026-07-18T19:42:32.075712,15.31711486,.0001003,53.1623,5.2406,80.8187,279.2928,0,U,47797,999,29663,.62657E-4,.158E-4,0
STARLINK-2379,2021-018M,2026-07-18T19:43:12.210240,15.31715230,.000114,53.1613,348.9943,75.2231,284.8897,0,U,47798,999,29685,.1046E-3,.2884E-4,0
STARLINK-2380,2021-018N,2026-07-18T18:33:47.022624,15.31703548,.0001238,53.1601,342.2174,77.1545,282.9594,0,U,47799,999,29694,.36616E-5,-.251E-5,0
STARLINK-2381,2021-018P,2026-07-18T16:48:43.182720,15.31707320,.0001241,53.1606,349.4714,83.4729,276.6414,0,U,47800,999,29683,.11247E-3,.3127E-4,0
STARLINK-2383,2021-018R,2026-07-18T19:22:29.689248,15.31711090,.0001179,53.1612,5.7752,88.5320,271.5816,0,U,47802,999,29663,.50532E-4,.1204E-4,0
STARLINK-2385,2021-018T,2026-07-18T18:06:32.955840,15.31711683,.0001114,53.1602,340.3390,89.0271,271.0858,0,U,47804,999,29697,.64045E-4,.1623E-4,0
STARLINK-2386,2021-018U,2026-07-18T20:04:21.374400,15.25096250,.0001792,53.0895,353.6339,213.9297,146.1586,0,U,47805,999,29678,.86615E-3,.21685E-3,0
STARLINK-2387,2021-018V,2026-07-18T19:51:38.231712,15.31710531,.0000901,53.1612,352.8018,74.9845,285.1256,0,U,47806,999,29687,.13225E-3,.3742E-4,0
STARLINK-2388,2021-018W,2026-07-18T18:14:28.566240,15.31707927,.0001144,53.1608,326.8354,80.3261,279.7869,0,U,47807,999,29716,.62226E-4,.1567E-4,0
STARLINK-2389,2021-018X,2026-07-18T16:29:44.854080,15.31707730,.000117,53.1623,353.1207,77.0852,283.0280,0,U,47808,999,29685,.36538E-4,.769E-5,0
STARLINK-2391,2021-018Z,2026-07-18T20:22:52.538016,15.31704706,.0001207,53.1616,5.4328,73.8403,286.2731,0,U,47810,999,29669,.1786E-4,.189E-5,0
STARLINK-2395,2021-018AD,2026-07-18T17:03:48.901824,15.31710000,.0001127,53.1624,353.1829,84.3155,275.7975,0,U,47814,999,29686,.34374E-4,.702E-5,0
STARLINK-2396,2021-018AE,2026-07-18T20:04:59.657376,15.31715845,.0001181,53.1600,352.4699,88.7616,271.3521,0,U,47815,999,29681,.19986E-3,.5845E-4,0
STARLINK-2399,2021-018AF,2026-07-18T20:17:07.660320,15.31703638,.0001212,53.1610,7.9275,89.0593,271.0547,0,U,47816,999,29658,.27368E-4,.484E-5,0
STARLINK-2400,2021-018AG,2026-07-18T20:45:21.139200,15.31706108,.0001035,53.1624,352.7760,88.7431,271.3689,0,U,47817,999,29681,.56147E-4,.1378E-4,0
STARLINK-2401,2021-018AH,2026-07-18T20:00:01.999008,15.81767631,.0004451,53.0443,338.0078,328.1226,239.2479,0,U,47818,999,598,.44636E-3,.92157E-3,0
STARLINK-2402,2021-018AJ,2026-07-18T20:38:37.492224,15.31709845,.00012,53.1598,352.7119,99.4046,260.7091,0,U,47819,999,29688,.76012E-4,.1995E-4,0
STARLINK-2406,2021-018AL,2026-07-18T17:44:05.857152,15.31714026,.0000954,53.1605,353.1489,67.6893,292.4210,0,U,47821,999,29680,-.56144E-4,-.2107E-4,0
STARLINK-2407,2021-018AM,2026-07-18T20:36:12.807648,15.31709573,.0001311,53.1617,4.9700,74.5079,285.6067,0,U,47822,999,29665,.41969E-4,.938E-5,0
STARLINK-2408,2021-018AN,2026-07-18T17:02:28.302720,15.31704895,.0001259,53.1611,8.4271,96.0094,264.1051,0,U,47823,999,29657,.12369E-4,.19E-6,0
STARLINK-2409,2021-018AP,2026-07-18T19:49:53.609952,15.31713478,.000136,53.1605,8.5508,99.2747,260.8408,0,U,47824,999,29657,.72506E-4,.1886E-4,0
STARLINK-2410,2021-018AQ,2026-07-18T19:58:18.323328,15.31721082,.0001119,53.1618,352.6382,80.7909,279.3219,0,U,47825,999,29682,.13616E-3,.3865E-4,0
STARLINK-2411,2021-018AR,2026-07-18T19:38:40.973856,15.31701072,.0001146,53.1613,355.2518,76.4775,283.6354,0,U,47826,999,29678,.16043E-4,.133E-5,0
